start=new Date('2022-06-09T00:00:00.000Z').valueOf();
sats=[{"ELEMENT_SET_NO":"999","MEAN_MOTION_DOT":"0.00000962","RCS_SIZE":"LARGE","SEMIMAJOR_AXIS":"6925.361","RA_OF_ASC_NODE":"207.1982","EPOCH":"2022-06-08T14:21:07.501536","MEAN_MOTION_DDOT":"0.0000000000000","TLE_LINE1":"1 46549U 20070T   22159.59800349  .00000962  00000-0  83502-4 0  9993","BSTAR":"0.00008350200000","OBJECT_NAME":"STARLINK-1700","MEAN_ELEMENT_THEORY":"SGP4","APOAPSIS":"548.333","OBJECT_ID":"2020-070T","REV_AT_EPOCH":"9270","DECAY_DATE":null,"REF_FRAME":"TEME","CLASSIFICATION_TYPE":"U","COUNTRY_CODE":"US","ARG_OF_PERICENTER":"68.1416","PERIOD":"95.592","FILE":"3486075","SITE":"AFETR","GP_ID":"205641932","TLE_LINE2":"2 46549  53.0552 207.1982 0001599  68.1416 291.9743 15.06396089 92709","CENTER_NAME":"EARTH","OBJECT_TYPE":"PAYLOAD","INCLINATION":"53.0552","LAUNCH_DATE":"2020-10-06","EPHEMERIS_TYPE":"0","ECCENTRICITY":"0.00015990","MEAN_MOTION":"15.06396089","PERIAPSIS":"546.118","MEAN_ANOMALY":"291.9743","NORAD_CAT_ID":"46549","TIME_SYSTEM":"UTC"},{"TIME_SYSTEM":"UTC","NORAD_CAT_ID":"46550","PERIAPSIS":"545.792","MEAN_ANOMALY":"317.9707","ECCENTRICITY":"0.00020230","MEAN_MOTION":"15.06406815","LAUNCH_DATE":"2020-10-06","EPHEMERIS_TYPE":"0","OBJECT_TYPE":"PAYLOAD","INCLINATION":"53.0546","TLE_LINE2":"2 46550  53.0546 207.8692 0002023  42.1437 317.9707 15.06406815 92974","CENTER_NAME":"EARTH","SITE":"AFETR","GP_ID":"205633621","COUNTRY_CODE":"US","ARG_OF_PERICENTER":"42.1437","PERIOD":"95.592","FILE":"3485745","CLASSIFICATION_TYPE":"U","REV_AT_EPOCH":"9297","DECAY_DATE":null,"REF_FRAME":"TEME","OBJECT_ID":"2020-070U","MEAN_ELEMENT_THEORY":"SGP4","APOAPSIS":"548.594","BSTAR":"0.00001640500000","OBJECT_NAME":"STARLINK-1701","TLE_LINE1":"1 46550U 20070U   22159.45055806 -.00000037  00000-0  16405-4 0  9992","ELEMENT_SET_NO":"999","RCS_SIZE":"LARGE","EPOCH":"2022-06-08T10:48:48.216384","SEMIMAJOR_AXIS":"6925.328","RA_OF_ASC_NODE":"207.8692","MEAN_MOTION_DOT":"-0.00000037","MEAN_MOTION_DDOT":"0.0000000000000"},{"INCLINATION":"53.0536","OBJECT_TYPE":"PAYLOAD","LAUNCH_DATE":"2020-10-06","EPHEMERIS_TYPE":"0","GP_ID":"205634872","SITE":"AFETR","CENTER_NAME":"EARTH","TLE_LINE2":"2 46552  53.0536 192.7362 0001581  60.5552 299.5595 15.06395581 93193","NORAD_CAT_ID":"46552","TIME_SYSTEM":"UTC","MEAN_MOTION":"15.06395581","ECCENTRICITY":"0.00015810","PERIAPSIS":"546.132","MEAN_ANOMALY":"299.5595","OBJECT_NAME":"STARLINK-1649","BSTAR":"0.00001810800000","MEAN_ELEMENT_THEORY":"SGP4","APOAPSIS":"548.322","MEAN_MOTION_DDOT":"0.0000000000000","ELEMENT_SET_NO":"999","EPOCH":"2022-06-08T11:25:18.553152","RCS_SIZE":"LARGE","SEMIMAJOR_AXIS":"6925.362","MEAN_MOTION_DOT":"-0.00000012","RA_OF_ASC_NODE":"192.7362","TLE_LINE1":"1 46552U 20070W   22159.47590918 -.00000012  00000-0  18108-4 0  9999","CLASSIFICATION_TYPE":"U","PERIOD":"95.592","ARG_OF_PERICENTER":"60.5552","FILE":"3485745","COUNTRY_CODE":"US","OBJECT_ID":"2020-070W","REF_FRAME":"TEME","DECAY_DATE":null,"REV_AT_EPOCH":"9319"},{"CENTER_NAME":"EARTH","TLE_LINE2":"2 46553  53.0544 178.2251 0001702  64.0720 296.0444 15.06403851 93386","GP_ID":"205634620","SITE":"AFETR","LAUNCH_DATE":"2020-10-06","EPHEMERIS_TYPE":"0","INCLINATION":"53.0544","OBJECT_TYPE":"PAYLOAD","PERIAPSIS":"546.023","MEAN_ANOMALY":"296.0444","MEAN_MOTION":"15.06403851","ECCENTRICITY":"0.00017020","TIME_SYSTEM":"UTC","NORAD_CAT_ID":"46553","TLE_LINE1":"1 46553U 20070X   22159.37223587  .00001237  00000-0  10190-3 0  9995","MEAN_MOTION_DDOT":"0.0000000000000","ELEMENT_SET_NO":"999","RCS_SIZE":"LARGE","SEMIMAJOR_AXIS":"6925.337","RA_OF_ASC_NODE":"178.2251","MEAN_MOTION_DOT":"0.00001237","EPOCH":"2022-06-08T08:56:01.179168","MEAN_ELEMENT_THEORY":"SGP4","APOAPSIS":"548.380","OBJECT_NAME":"STARLINK-1664","BSTAR":"0.00010190000000","DECAY_DATE":null,"REF_FRAME":"TEME","REV_AT_EPOCH":"9338","OBJECT_ID":"2020-070X","PERIOD":"95.592","ARG_OF_PERICENTER":"64.0720","FILE":"3485745","COUNTRY_CODE":"US","CLASSIFICATION_TYPE":"U"},{"REV_AT_EPOCH":"9317","DECAY_DATE":null,"REF_FRAME":"TEME","OBJECT_ID":"2020-070Y","COUNTRY_CODE":"US","FILE":"3485745","ARG_OF_PERICENTER":"80.1117","PERIOD":"95.592","CLASSIFICATION_TYPE":"U","TLE_LINE1":"1 46554U 20070Y   22159.35795524 -.00000417  00000-0 -91129-5 0  9993","EPOCH":"2022-06-08T08:35:27.332736","RCS_SIZE":"LARGE","SEMIMAJOR_AXIS":"6925.354","MEAN_MOTION_DOT":"-0.00000417","RA_OF_ASC_NODE":"193.2685","ELEMENT_SET_NO":"999","MEAN_MOTION_DDOT":"0.0000000000000","APOAPSIS":"548.205","MEAN_ELEMENT_THEORY":"SGP4","BSTAR":"-0.00000911290000","OBJECT_NAME":"STARLINK-1671","MEAN_ANOMALY":"280.0033","PERIAPSIS":"546.233","ECCENTRICITY":"0.00014240","MEAN_MOTION":"15.06398215","TIME_SYSTEM":"UTC","NORAD_CAT_ID":"46554","TLE_LINE2":"2 46554  53.0545 193.2685 0001424  80.1117 280.0033 15.06398215 93177","CENTER_NAME":"EARTH","SITE":"AFETR","GP_ID":"205633371","EPHEMERIS_TYPE":"0","LAUNCH_DATE":"2020-10-06","OBJECT_TYPE":"PAYLOAD","INCLINATION":"53.0545"},{"ELEMENT_SET_NO":"999","SEMIMAJOR_AXIS":"6925.362","RCS_SIZE":"LARGE","MEAN_MOTION_DOT":"0.00000159","RA_OF_ASC_NODE":"208.0091","EPOCH":"2022-06-08T10:01:02.325792","MEAN_MOTION_DDOT":"0.0000000000000","TLE_LINE1":"1 46556U 20070AA  22159.41738803  .00000159  00000-0  29552-4 0  9990","BSTAR":"0.00002955200000","OBJECT_NAME":"STARLINK-1676","MEAN_ELEMENT_THEORY":"SGP4","APOAPSIS":"548.305","OBJECT_ID":"2020-070AA","REV_AT_EPOCH":"9297","DECAY_DATE":null,"REF_FRAME":"TEME","CLASSIFICATION_TYPE":"U","COUNTRY_CODE":"US","PERIOD":"95.592","ARG_OF_PERICENTER":"60.5251","FILE":"3485745","SITE":"AFETR","GP_ID":"205634122","TLE_LINE2":"2 46556  53.0532 208.0091 0001557  60.5251 299.5893 15.06395662 92978","CENTER_NAME":"EARTH","OBJECT_TYPE":"PAYLOAD","INCLINATION":"53.0532","EPHEMERIS_TYPE":"0","LAUNCH_DATE":"2020-10-06","ECCENTRICITY":"0.00015570","MEAN_MOTION":"15.06395662","PERIAPSIS":"546.149","MEAN_ANOMALY":"299.5893","NORAD_CAT_ID":"46556","TIME_SYSTEM":"UTC"},{"CENTER_NAME":"EARTH","TLE_LINE2":"2 46557  53.0543 192.5269 0001430  60.5141 299.5991 15.06401561 93205","GP_ID":"205634372","SITE":"AFETR","EPHEMERIS_TYPE":"0","LAUNCH_DATE":"2020-10-06","INCLINATION":"53.0543","OBJECT_TYPE":"PAYLOAD","MEAN_ANOMALY":"299.5991","PERIAPSIS":"546.218","MEAN_MOTION":"15.06401561","ECCENTRICITY":"0.00014300","TIME_SYSTEM":"UTC","NORAD_CAT_ID":"46557","TLE_LINE1":"1 46557U 20070AB  22159.52750554 -.00000276  00000-0  33551-6 0  9997","MEAN_MOTION_DDOT":"0.0000000000000","RCS_SIZE":"LARGE","RA_OF_ASC_NODE":"192.5269","SEMIMAJOR_AXIS":"6925.344","EPOCH":"2022-06-08T12:39:36.478656","MEAN_MOTION_DOT":"-0.00000276","ELEMENT_SET_NO":"999","APOAPSIS":"548.199","MEAN_ELEMENT_THEORY":"SGP4","OBJECT_NAME":"STARLINK-1679","BSTAR":"0.00000033551000","DECAY_DATE":null,"REF_FRAME":"TEME","REV_AT_EPOCH":"9320","OBJECT_ID":"2020-070AB","FILE":"3485745","PERIOD":"95.592","ARG_OF_PERICENTER":"60.5141","COUNTRY_CODE":"US","CLASSIFICATION_TYPE":"U"},{"TLE_LINE2":"2 46558  53.0536 192.7674 0001521  61.3794 298.7348 15.06397692 93165","CENTER_NAME":"EARTH","SITE":"AFETR","GP_ID":"205635121","EPHEMERIS_TYPE":"0","LAUNCH_DATE":"2020-10-06","OBJECT_TYPE":"PAYLOAD","INCLINATION":"53.0536","PERIAPSIS":"546.167","MEAN_ANOMALY":"298.7348","ECCENTRICITY":"0.00015210","MEAN_MOTION":"15.06397692","TIME_SYSTEM":"UTC","NORAD_CAT_ID":"46558","TLE_LINE1":"1 46558U 20070AC  22159.46853521 -.00000543  00000-0 -17587-4 0  9996","ELEMENT_SET_NO":"999","RCS_SIZE":"LARGE","SEMIMAJOR_AXIS":"6925.356","RA_OF_ASC_NODE":"192.7674","EPOCH":"2022-06-08T11:14:41.442144","MEAN_MOTION_DOT":"-0.00000543","MEAN_MOTION_DDOT":"0.0000000000000","MEAN_ELEMENT_THEORY":"SGP4","APOAPSIS":"548.274","BSTAR":"-0.00001758700000","OBJECT_NAME":"STARLINK-1680","REV_AT_EPOCH":"9316","REF_FRAME":"TEME","DECAY_DATE":null,"OBJECT_ID":"2020-070AC","COUNTRY_CODE":"US","ARG_OF_PERICENTER":"61.3794","PERIOD":"95.592","FILE":"3485745","CLASSIFICATION_TYPE":"U"},{"TLE_LINE1":"1 46559U 20070AD  22159.32432317  .00000767  00000-0  70416-4 0  9994","MEAN_MOTION_DDOT":"0.0000000000000","ELEMENT_SET_NO":"999","RCS_SIZE":"LARGE","SEMIMAJOR_AXIS":"6925.355","MEAN_MOTION_DOT":"0.00000767","EPOCH":"2022-06-08T07:47:01.521888","RA_OF_ASC_NODE":"178.4278","MEAN_ELEMENT_THEORY":"SGP4","APOAPSIS":"548.314","OBJECT_NAME":"STARLINK-1681","BSTAR":"0.00007041600000","DECAY_DATE":null,"REF_FRAME":"TEME","REV_AT_EPOCH":"9337","OBJECT_ID":"2020-070AD","ARG_OF_PERICENTER":"62.5331","PERIOD":"95.592","FILE":"3485745","COUNTRY_CODE":"US","CLASSIFICATION_TYPE":"U","CENTER_NAME":"EARTH","TLE_LINE2":"2 46559  53.0543 178.4278 0001580  62.5331 297.5819 15.06397947 93376","GP_ID":"205633872","SITE":"AFETR","LAUNCH_DATE":"2020-10-06","EPHEMERIS_TYPE":"0","INCLINATION":"53.0543","OBJECT_TYPE":"PAYLOAD","MEAN_ANOMALY":"297.5819","PERIAPSIS":"546.126","MEAN_MOTION":"15.06397947","ECCENTRICITY":"0.00015800","TIME_SYSTEM":"UTC","NORAD_CAT_ID":"46559"},{"PERIOD":"95.593","ARG_OF_PERICENTER":"57.8865","FILE":"3485745","COUNTRY_CODE":"US","CLASSIFICATION_TYPE":"U","REF_FRAME":"TEME","DECAY_DATE":null,"REV_AT_EPOCH":"9319","OBJECT_ID":"2020-070AE","MEAN_ELEMENT_THEORY":"SGP4","APOAPSIS":"548.298","OBJECT_NAME":"STARLINK-1706","BSTAR":"-0.00001428000000","TLE_LINE1":"1 46560U 20070AE  22159.48328316 -.00000494  00000-0 -14280-4 0  9992","MEAN_MOTION_DDOT":"0.0000000000000","ELEMENT_SET_NO":"999","RCS_SIZE":"LARGE","MEAN_MOTION_DOT":"-0.00000494","SEMIMAJOR_AXIS":"6925.366","RA_OF_ASC_NODE":"192.7034","EPOCH":"2022-06-08T11:35:55.665024","TIME_SYSTEM":"UTC","NORAD_CAT_ID":"46560","PERIAPSIS":"546.165","MEAN_ANOMALY":"302.2273","MEAN_MOTION":"15.06394276","ECCENTRICITY":"0.00015400","LAUNCH_DATE":"2020-10-06","EPHEMERIS_TYPE":"0","INCLINATION":"53.0536","OBJECT_TYPE":"PAYLOAD","CENTER_NAME":"EARTH","TLE_LINE2":"2 46560  53.0536 192.7034 0001540  57.8865 302.2273 15.06394276 93194","GP_ID":"205633622","SITE":"AFETR"}];
